{
"type": "FeatureCollection",
"name": "cartographic_lines",
"crs": { "type": "name", "properties": { "name": "urn:ogc:def:crs:OGC:1.3:CRS84" } },
"features": [
{ "type": "Feature", "properties": { "id": 0 }, "geometry": { "type": "MultiLineString", "coordinates": [ [ [ -1.126483979441559, 74.600306013711077 ], [ -0.155225840032424, 74.591829972337763 ], [ 0.815736444738852, 74.566404430102097 ], [ 1.786107110354211, 74.524037131870585 ], [ 2.755590572508715, 74.464740983132657 ], [ 3.723891517148195, 74.388534046069637 ], [ 4.69071499042477, 74.295439534052804 ], [ 5.655766488542653, 74.185485804572323 ], [ 6.618752047466852, 74.058706350599365 ], [ 7.579378332467467, 73.915139790383733 ], [ 8.537352727472294, 73.754829855690431 ], [ 9.492383424200508, 73.577825378478536 ], [ 10.444179511050294, 73.38418027602647 ], [ 11.39245106171334, 73.173953534508328 ], [ 12.336909223489204, 72.947209191026104 ], [ 13.277266305272638, 72.704016314103313 ], [ 14.213235865187087, 72.444448982646151 ], [ 15.144532797837655, 72.168586263378273 ], [ 16.070873421156989, 71.876512186756287 ], [ 16.991975562817558, 71.568315721373324 ], [ 17.907558646184093, 71.244090746858319 ], [ 18.817343775779953, 70.903936025279336 ], [ 19.721053822241377, 70.547955171059712 ], [ 20.618413506733773, 70.176256619416122 ], [ 21.509149484804325, 69.788953593328117 ], [ 22.392990429645369, 69.386164069049329 ], [ 23.269667114743136, 68.968010740170769 ], [ 24.138912495886792, 68.534620980247155 ], [ 25.000461792512674, 68.086126803997672 ], [ 25.854052568359009, 67.622664827093132 ], [ 26.699424811406562, 67.14437622454129 ], [ 27.536321013080784, 66.651406687683789 ], [ 28.364486246691467, 66.143906379817082 ], [ 29.183668245085816, 65.622029890451202 ], [ 29.99361747749154, 65.08593618822033 ], [ 30.794087225526287, 64.53578857245941 ], [ 31.58483365835049, 63.971754623461621 ], [ 32.365615906940576, 63.394006151431753 ], [ 33.136196137460004, 62.802719144151141 ], [ 33.896339623705792, 62.19807371337015 ], [ 34.645814818608343, 61.580254039944315 ], [ 35.384393424762983, 60.949448317731118 ], [ 36.111850463971479, 60.305848696264292 ], [ 36.827964345772671, 59.649651222223241 ], [ 37.532516934941007, 58.981055779715263 ], [ 38.225293617932671, 58.300266029389 ], [ 38.906083368258948, 57.607489346397337 ], [ 39.574678810766919, 56.902936757229007 ], [ 40.230876284807977, 56.186822875427822 ], [ 40.87447590627481, 55.459365836219327 ], [ 41.505281628488007, 54.720787230064694 ], [ 42.123101301913842, 53.971312035162136 ], [ 42.72774673269484, 53.211168548916355 ], [ 43.319033739975445, 52.440588318396927 ], [ 43.896782212005327, 51.659806069806848 ], [ 44.460816161003116, 50.869059636982648 ], [ 45.010963776764029, 50.068589888947898 ], [ 45.547057478994915, 49.258640656542184 ], [ 46.068933968360817, 48.439458658147828 ], [ 46.576434276227523, 47.611293424537152 ], [ 47.069403813085017, 46.77439722286293 ], [ 47.54769241563686, 45.929024979815381 ], [ 48.011154392541428, 45.075434203969046 ], [ 48.45964856879089, 44.213884907343171 ], [ 48.89303832871451, 43.344639526199515 ], [ 49.311191657593078, 42.467962841101745 ], [ 49.713981181871873, 41.584121896260712 ], [ 50.101284207959885, 40.69338591819016 ], [ 50.472982759603475, 39.796026233697759 ], [ 50.828963613823099, 38.892316187236339 ], [ 51.169118335402089, 37.982531057640486 ], [ 51.493343309917101, 37.066947974273944 ], [ 51.801539775300064, 36.145845832613382 ], [ 52.093613851922058, 35.219505209294049 ], [ 52.369476571189942, 34.288208276643481 ], [ 52.629043902647112, 33.352238716729033 ], [ 52.872236779569896, 32.411881634945601 ], [ 53.098981123052134, 31.467423473169738 ], [ 53.309207864570276, 30.519151922506694 ], [ 53.502852967022349, 29.567355835656912 ], [ 53.679857444234258, 28.612325138928703 ], [ 53.840167378927553, 27.654350743923878 ], [ 53.983733939143193, 26.693724458923263 ], [ 54.110513393116157, 25.730738899999064 ], [ 54.220467122596638, 24.765687401881184 ], [ 54.313561634613478, 23.798863928604611 ], [ 54.389768571676498, 22.830562983965134 ], [ 54.449064720414434, 21.86107952181063 ], [ 54.491432018645959, 20.890708856195275 ], [ 54.516857560881618, 19.919746571424 ], [ 54.525333602254946, 18.94848843201467 ], [ 54.516857560881625, 17.977230292605345 ], [ 54.491432018645966, 17.00626800783407 ], [ 54.449064720414441, 16.035897342218711 ], [ 54.389768571676512, 15.066413880064209 ], [ 54.313561634613492, 14.09811293542473 ], [ 54.220467122596659, 13.131289462148157 ], [ 54.110513393116179, 12.166237964030277 ], [ 53.983733939143221, 11.203252405106078 ], [ 53.840167378927589, 10.242626120105463 ], [ 53.679857444234287, 9.284651725100639 ], [ 53.502852967022385, 8.329621028372427 ], [ 53.309207864570318, 7.377824941522643 ], [ 53.098981123052184, 6.429553390859599 ], [ 52.872236779569945, 5.485095229083736 ], [ 52.629043902647162, 4.544738147300306 ], [ 52.369476571189999, 3.608768587385857 ], [ 52.093613851922115, 2.677471654735289 ], [ 51.801539775300128, 1.751131031415955 ], [ 51.493343309917172, 0.83002888975539 ], [ 51.16911833540216, -0.085554193611149 ], [ 50.82896361382317, -0.995339323207006 ], [ 50.472982759603546, -1.899049369668429 ], [ 50.101284207959957, -2.796409054160826 ], [ 49.713981181871951, -3.687145032231381 ], [ 49.311191657593163, -4.570985977072418 ], [ 48.893038328714603, -5.447662662170185 ], [ 48.459648568790982, -6.316908043313841 ], [ 48.011154392541521, -7.178457339939726 ], [ 47.547692415636959, -8.032048115786058 ], [ 47.069403813085117, -8.877420358833607 ], [ 46.576434276227637, -9.714316560507836 ], [ 46.068933968360916, -10.542481794118508 ], [ 45.547057478995029, -11.361663792512864 ], [ 45.01096377676415, -12.171613024918589 ], [ 44.46081616100323, -12.972082772953339 ], [ 43.896782212005448, -13.762829205777543 ], [ 43.319033739975573, -14.543611454367614 ], [ 42.727746732694968, -15.314191684887049 ], [ 42.12310130191397, -16.074335171132837 ], [ 41.505281628488135, -16.823810366035396 ], [ 40.874475906274938, -17.562388972190028 ], [ 40.230876284808112, -18.289846011398531 ], [ 39.574678810767061, -19.005959893199716 ], [ 38.90608336825909, -19.710512482368053 ], [ 38.225293617932813, -20.403289165359709 ], [ 37.53251693494115, -21.084078915685978 ], [ 36.82796434577282, -21.752674358193957 ], [ 36.111850463971635, -22.408871832235022 ], [ 35.384393424763132, -23.052471453701848 ], [ 34.645814818608507, -23.683277175915045 ], [ 33.896339623705948, -24.30109684934088 ], [ 33.136196137460161, -24.905742280121878 ], [ 32.365615906940732, -25.497029287402484 ], [ 31.584833658350654, -26.074777759432365 ], [ 30.794087225526454, -26.638811708430147 ], [ 29.993617477491707, -27.18895932419106 ], [ 29.183668245085979, -27.725053026421946 ], [ 28.364486246691634, -28.246929515787841 ], [ 27.536321013080958, -28.754429823654554 ], [ 26.699424811406729, -29.247399360512048 ], [ 25.854052568359183, -29.725687963063884 ], [ 25.000461792512848, -30.189149939968445 ], [ 24.13891249588697, -30.637644116217913 ], [ 23.269667114743314, -31.071033876141534 ], [ 22.392990429645547, -31.489187205020102 ], [ 21.50914948480451, -31.891976729298889 ], [ 20.618413506733955, -32.279279755386895 ], [ 19.721053822241558, -32.650978307030492 ], [ 18.817343775780138, -33.006959161250109 ], [ 17.907558646184281, -33.347113882829099 ], [ 16.991975562817743, -33.671338857344118 ], [ 16.070873421157177, -33.979535322727074 ], [ 15.144532797837844, -34.271609399349067 ], [ 14.213235865187276, -34.547472118616959 ], [ 13.27726630527283, -34.807039450074122 ], [ 12.336909223489398, -35.050232326996905 ], [ 11.392451061713533, -35.276976670479144 ], [ 10.444179511050487, -35.487203411997285 ], [ 9.492383424200703, -35.680848514449352 ], [ 8.53735272747249, -35.857852991661254 ], [ 7.579378332467664, -36.018162926354556 ], [ 6.618752047467047, -36.161729486570195 ], [ 5.65576648854285, -36.28850894054316 ], [ 4.690714990424967, -36.398462670023633 ], [ 3.723891517148392, -36.491557182040474 ], [ 2.755590572508912, -36.567764119103487 ], [ 1.786107110354409, -36.627060267841422 ], [ 0.81573644473905, -36.669427566072955 ], [ -0.155225840032227, -36.694853108308614 ], [ -1.126483979441559, -36.703329149681934 ], [ -2.097742118852567, -36.694853108308578 ], [ -3.06870440362383, -36.669427566072891 ], [ -4.039075069239175, -36.627060267841337 ], [ -5.008558531393666, -36.56776411910338 ], [ -5.97685947603313, -36.491557182040331 ], [ -6.943682949309689, -36.398462670023463 ], [ -7.908734447427556, -36.288508940542968 ], [ -8.87172000635174, -36.161729486569968 ], [ -9.832346291352339, -36.018162926354307 ], [ -10.790320686357148, -35.857852991660984 ], [ -11.745351383085344, -35.680848514449053 ], [ -12.697147469935111, -35.487203411996965 ], [ -13.645419020598139, -35.276976670478803 ], [ -14.589877182373986, -35.050232326996536 ], [ -15.530234264157398, -34.807039450073731 ], [ -16.466203824071826, -34.547472118616547 ], [ -17.397500756722376, -34.271609399348634 ], [ -18.323841380041689, -33.979535322726626 ], [ -19.244943521702236, -33.671338857343642 ], [ -20.160526605068753, -33.347113882828609 ], [ -21.070311734664589, -33.006959161249597 ], [ -21.974021781125991, -32.650978307029959 ], [ -22.871381465618363, -32.279279755386355 ], [ -23.762117443688897, -31.891976729298321 ], [ -24.645958388529912, -31.489187205019519 ], [ -25.522635073627661, -31.071033876140937 ], [ -26.391880454771297, -30.637644116217295 ], [ -27.253429751397153, -30.18914993996782 ], [ -28.107020527243463, -29.725687963063237 ], [ -28.952392770290992, -29.247399360511388 ], [ -29.789288971965195, -28.754429823653879 ], [ -30.617454205575847, -28.246929515787151 ], [ -31.436636203970174, -27.72505302642125 ], [ -32.246585436375881, -27.18895932419035 ], [ -33.047055184410596, -26.638811708429429 ], [ -33.837801617234774, -26.074777759431633 ], [ -34.618583865824831, -25.497029287401745 ], [ -35.389164096344238, -24.905742280121132 ], [ -36.149307582590005, -24.301096849340119 ], [ -36.898782777492542, -23.683277175914277 ], [ -37.637361383647139, -23.052471453701067 ], [ -38.364818422855627, -22.40887183223424 ], [ -39.080932304656784, -21.752674358193168 ], [ -39.785484893825092, -21.08407891568519 ], [ -40.478261576816735, -20.403289165358913 ], [ -41.159051327142983, -19.710512482367243 ], [ -41.827646769650933, -19.005959893198906 ], [ -42.483844243691969, -18.289846011397714 ], [ -43.127443865158767, -17.562388972189211 ], [ -43.758249587371942, -16.823810366034571 ], [ -44.376069260797756, -16.07433517113202 ], [ -44.980714691578733, -15.314191684886225 ], [ -45.572001698859317, -14.543611454366797 ], [ -46.149750170889163, -13.762829205776711 ], [ -46.713784119886931, -12.972082772952518 ], [ -47.263931735647823, -12.171613024917761 ], [ -47.800025437878681, -11.361663792512044 ], [ -48.321901927244554, -10.542481794117688 ], [ -48.829402235111239, -9.714316560507012 ], [ -49.322371771968712, -8.87742035883279 ], [ -49.800660374520525, -8.032048115785244 ], [ -50.264122351425073, -7.178457339938909 ], [ -50.712616527674513, -6.316908043313035 ], [ -51.146006287598119, -5.447662662169382 ], [ -51.564159616476658, -4.570985977071619 ], [ -51.966949140755432, -3.687145032230582 ], [ -52.354252166843416, -2.796409054160033 ], [ -52.725950718486985, -1.899049369667644 ], [ -53.081931572706587, -0.995339323206228 ], [ -53.422086294285556, -0.085554193610378 ], [ -53.746311268800554, 0.830028889756157 ], [ -54.054507734183488, 1.751131031416715 ], [ -54.346581810805461, 2.677471654736038 ], [ -54.622444530073338, 3.608768587386601 ], [ -54.882011861530479, 4.544738147301041 ], [ -55.125204738453242, 5.485095229084465 ], [ -55.351949081935466, 6.429553390860319 ], [ -55.562175823453593, 7.377824941523356 ], [ -55.755820925905638, 8.329621028373133 ], [ -55.932825403117526, 9.284651725101334 ], [ -56.093135337810814, 10.24262612010615 ], [ -56.236701898026432, 11.203252405106756 ], [ -56.36348135199939, 12.166237964030945 ], [ -56.473435081479842, 13.131289462148818 ], [ -56.566529593496675, 14.09811293542538 ], [ -56.642736530559674, 15.06641388006485 ], [ -56.702032679297595, 16.035897342219343 ], [ -56.744399977529106, 17.006268007834688 ], [ -56.769825519764758, 17.977230292605952 ], [ -56.778301561138065, 18.948488432015271 ], [ -56.76982551976473, 19.919746571424586 ], [ -56.744399977529056, 20.89070885619585 ], [ -56.702032679297524, 21.861079521811195 ], [ -56.642736530559574, 22.830562983965688 ], [ -56.566529593496554, 23.798863928605154 ], [ -56.4734350814797, 24.765687401881713 ], [ -56.363481351999212, 25.730738899999583 ], [ -56.23670189802624, 26.693724458923768 ], [ -56.093135337810594, 27.654350743924368 ], [ -55.932825403117292, 28.612325138929183 ], [ -55.755820925905375, 29.567355835657381 ], [ -55.562175823453295, 30.519151922507152 ], [ -55.351949081935153, 31.467423473170186 ], [ -55.125204738452908, 32.411881634946035 ], [ -54.882011861530117, 33.352238716729453 ], [ -54.622444530072947, 34.288208276643886 ], [ -54.346581810805056, 35.219505209294439 ], [ -54.054507734183062, 36.145845832613759 ], [ -53.746311268800099, 37.066947974274306 ], [ -53.42208629428508, 37.982531057640827 ], [ -53.08193157270609, 38.892316187236673 ], [ -52.725950718486466, 39.796026233698086 ], [ -52.354252166842869, 40.693385918190458 ], [ -51.966949140754863, 41.584121896260996 ], [ -51.564159616476068, 42.467962841102022 ], [ -51.146006287597501, 43.344639526199778 ], [ -50.71261652767388, 44.21388490734342 ], [ -50.264122351424412, 45.075434203969287 ], [ -49.80066037451985, 45.929024979815608 ], [ -49.322371771968015, 46.774397222863143 ], [ -48.829402235110521, 47.611293424537351 ], [ -48.321901927243815, 48.439458658148013 ], [ -47.80002543787792, 49.258640656542354 ], [ -47.263931735647041, 50.068589888948068 ], [ -46.713784119886128, 50.869059636982797 ], [ -46.149750170888346, 51.65980606980699 ], [ -45.572001698858472, 52.440588318397054 ], [ -44.980714691577866, 53.211168548916476 ], [ -44.376069260796875, 53.971312035162242 ], [ -43.75824958737104, 54.720787230064794 ], [ -43.127443865157851, 55.459365836219405 ], [ -42.483844243691031, 56.186822875427893 ], [ -41.827646769649974, 56.902936757229071 ], [ -41.159051327142016, 57.607489346397394 ], [ -40.47826157681574, 58.300266029389043 ], [ -39.785484893824091, 58.981055779715305 ], [ -39.080932304655768, 59.649651222223262 ], [ -38.364818422854583, 60.305848696264313 ], [ -37.637361383646095, 60.949448317731132 ], [ -36.898782777491462, 61.580254039944322 ], [ -36.149307582588918, 62.198073713370142 ], [ -35.389164096343137, 62.802719144151133 ], [ -34.618583865823716, 63.394006151431725 ], [ -33.837801617233644, 63.971754623461592 ], [ -33.047055184409459, 64.535788572459381 ], [ -32.246585436374716, 65.085936188220273 ], [ -31.436636203969002, 65.622029890451159 ], [ -30.61745420557466, 66.143906379817039 ], [ -29.789288971963995, 66.651406687683746 ], [ -28.952392770289777, 67.144376224541233 ], [ -28.107020527242241, 67.622664827093047 ], [ -27.253429751395917, 68.086126803997615 ], [ -26.39188045477005, 68.53462098024707 ], [ -25.522635073626404, 68.968010740170683 ], [ -24.645958388528648, 69.386164069049244 ], [ -23.762117443687618, 69.788953593328031 ], [ -22.871381465617066, 70.176256619416051 ], [ -21.974021781124669, 70.547955171059641 ], [ -21.070311734663253, 70.903936025279251 ], [ -20.160526605067389, 71.244090746858234 ], [ -19.244943521700854, 71.568315721373267 ], [ -18.323841380040289, 71.876512186756216 ], [ -17.397500756720955, 72.168586263378216 ], [ -16.466203824070387, 72.444448982646094 ], [ -15.530234264155942, 72.704016314103256 ], [ -14.589877182372508, 72.947209191026047 ], [ -13.645419020596645, 73.173953534508286 ], [ -12.697147469933599, 73.384180276026427 ], [ -11.745351383083813, 73.577825378478494 ], [ -10.790320686355601, 73.754829855690389 ], [ -9.832346291350776, 73.915139790383705 ], [ -8.871720006350159, 74.058706350599337 ], [ -7.908734447425961, 74.185485804572295 ], [ -6.943682949308079, 74.295439534052775 ], [ -5.976859476031503, 74.388534046069623 ], [ -5.008558531392024, 74.464740983132629 ], [ -4.039075069237521, 74.524037131870557 ], [ -3.068704403622161, 74.566404430102097 ], [ -2.097742118850885, 74.591829972337763 ], [ -1.126483979441559, 74.600306013711077 ] ] ] } },
{ "type": "Feature", "properties": { "id": 0 }, "geometry": { "type": "MultiLineString", "coordinates": [ [ [ -1.126483979441559, 58.244049193032858 ], [ -0.440681881859435, 58.238064288796643 ], [ 0.24491131376039, 58.220111399147768 ], [ 0.9300867690889, 58.190195992710365 ], [ 1.61463577304496, 58.148327182007016 ], [ 2.298349805370589, 58.094517720683044 ], [ 2.981020600148255, 58.028783999621645 ], [ 3.662440209240688, 57.951146041951027 ], [ 4.342401065633897, 57.861627496945204 ], [ 5.020696046664097, 57.760255632820154 ], [ 5.697118537109275, 57.647061328427704 ], [ 6.371462492126191, 57.522079063849525 ], [ 7.043522500013628, 57.385346909894118 ], [ 7.713093844782793, 57.236906516500135 ], [ 8.379972568515786, 57.076803100049396 ], [ 9.043955533493159, 56.905085429593484 ], [ 9.704840484071633, 56.721805811998301 ], [ 10.362426108293123, 56.527020076010842 ], [ 11.01651209920632, 56.320787555253197 ], [ 11.666899215882117, 56.103171070149031 ], [ 12.313389344104328, 55.8742369087878 ], [ 12.955785556717213, 55.634054806732777 ], [ 13.593892173611378, 55.382697925778956 ], [ 14.227514821329835, 55.12024283166722 ], [ 14.856460492276051, 54.8467694707617 ], [ 15.480537603505924, 54.562361145697324 ], [ 16.099556055085799, 54.267104490005025 ], [ 16.713327287998762, 53.961089441722351 ], [ 17.321664341581528, 53.644409215997413 ], [ 17.924381910474484, 53.317160276694779 ], [ 18.521296401067495, 52.979442307011432 ], [ 19.112225987424271, 52.63135817911251 ], [ 19.696990666668363, 52.273013922795343 ], [ 20.275412313813717, 51.904518693191761 ], [ 20.847314736023321, 51.525984737518392 ], [ 21.412523726279222, 51.137527360885059 ], [ 21.970867116447696, 50.739264891171771 ], [ 22.522174829723301, 50.331318642984868 ], [ 23.066278932435928, 49.913812880703389 ], [ 23.603013685205042, 49.486874780627012 ], [ 24.132215593425475, 49.050634392236859 ], [ 24.653723457069503, 48.605224598581181 ], [ 25.167378419789888, 48.150781075797916 ], [ 25.673024017309103, 47.687442251786393 ], [ 26.170506225079848, 47.215349264040867 ], [ 26.659673505202413, 46.734645916658685 ], [ 27.140376852584605, 46.24547863653612 ], [ 27.612469840330128, 45.747996428765376 ], [ 28.075808664341654, 45.242350831246164 ], [ 28.530252187124926, 44.728695868525783 ], [ 28.975661980780604, 44.207188004881758 ], [ 29.411902369170758, 43.677986096661321 ], [ 29.838840469247138, 43.141251343892215 ], [ 30.25634623152861, 42.597147241179584 ], [ 30.664292479715527, 42.045839527903986 ], [ 31.062554949428812, 41.487496137735512 ], [ 31.451012326062141, 40.922287147479608 ], [ 31.829546281735524, 40.350384725270011 ], [ 32.19804151133912, 39.771963078124656 ], [ 32.556385767656288, 39.187198398880568 ], [ 32.904469895555209, 38.596268812523789 ], [ 33.242187865238549, 37.999354321930781 ], [ 33.569436804541205, 37.396636753037825 ], [ 33.886117030266128, 36.788299699455067 ], [ 34.192132078548802, 36.1745284665421 ], [ 34.487388734241108, 35.555510014962223 ], [ 34.771797059305491, 34.931432903732357 ], [ 35.045270420211018, 34.302487232786149 ], [ 35.307725514322755, 33.668864585067688 ], [ 35.559082395276576, 33.030757968173525 ], [ 35.799264497331599, 32.388361755560645 ], [ 36.028198658692837, 31.741871627338426 ], [ 36.245815143797003, 31.091484510662635 ], [ 36.452047664554648, 30.43739851974944 ], [ 36.646833400542114, 29.77981289552795 ], [ 36.830113018137304, 29.118927944949476 ], [ 37.001830688593216, 28.454944979972105 ], [ 37.161934105043962, 27.788066256239112 ], [ 37.310374498437945, 27.118494911469949 ], [ 37.447106652393359, 26.446434903582514 ], [ 37.572088916971545, 25.772090948565602 ], [ 37.685283221363989, 25.095668458120425 ], [ 37.786655085489045, 24.417373477090226 ], [ 37.876173630494876, 23.737412620697015 ], [ 37.953811588165493, 23.055993011604585 ], [ 38.019545309226892, 22.373322216826921 ], [ 38.073354770550864, 21.689608184501292 ], [ 38.11522358125422, 21.005059180545235 ], [ 38.145138987691631, 20.319883725216727 ], [ 38.163091877340506, 19.634290529596903 ], [ 38.169076781576734, 18.948488432014642 ], [ 38.163091877340506, 18.262686334432381 ], [ 38.145138987691638, 17.577093138812558 ], [ 38.115223581254227, 16.891917683484046 ], [ 38.073354770550871, 16.207368679527988 ], [ 38.019545309226906, 15.52365464720236 ], [ 37.953811588165507, 14.840983852424696 ], [ 37.87617363049489, 14.159564243332266 ], [ 37.786655085489066, 13.479603386939056 ], [ 37.685283221364017, 12.801308405908857 ], [ 37.572088916971566, 12.124885915463683 ], [ 37.44710665239338, 11.450541960446767 ], [ 37.310374498437973, 10.77848195255933 ], [ 37.161934105043997, 10.108910607790168 ], [ 37.001830688593252, 9.442031884057176 ], [ 36.83011301813734, 8.778048919079804 ], [ 36.646833400542157, 8.117163968501329 ], [ 36.452047664554691, 7.45957834427984 ], [ 36.245815143797053, 6.805492353366643 ], [ 36.028198658692887, 6.15510523669085 ], [ 35.799264497331649, 5.508615108468635 ], [ 35.559082395276626, 4.866218895855751 ], [ 35.307725514322804, 4.228112278961587 ], [ 35.045270420211068, 3.594489631243129 ], [ 34.771797059305548, 2.965543960296912 ], [ 34.487388734241165, 2.341466849067044 ], [ 34.192132078548873, 1.722448397487169 ], [ 33.886117030266192, 1.108677164574209 ], [ 33.569436804541276, 0.500340110991439 ], [ 33.24218786523862, -0.102377457901515 ], [ 32.904469895555273, -0.699291948494522 ], [ 32.556385767656366, -1.290221534851304 ], [ 32.198041511339184, -1.874986214095389 ], [ 31.829546281735603, -2.453407861240747 ], [ 31.451012326062227, -3.02531028345035 ], [ 31.062554949428893, -3.590519273706256 ], [ 30.664292479715613, -4.148862663874731 ], [ 30.256346231528703, -4.700170377150325 ], [ 29.838840469247227, -5.244274479862955 ], [ 29.41190236917085, -5.781009232632067 ], [ 28.975661980780693, -6.310211140852505 ], [ 28.530252187125019, -6.831719004496531 ], [ 28.07580866434175, -7.34537396721692 ], [ 27.612469840330231, -7.851019564736132 ], [ 27.140376852584708, -8.348501772506877 ], [ 26.659673505202516, -8.837669052629437 ], [ 26.170506225079951, -9.318372400011624 ], [ 25.67302401730921, -9.790465387757152 ], [ 25.167378419789998, -10.253804211768681 ], [ 24.65372345706961, -10.70824773455195 ], [ 24.132215593425588, -11.153657528207624 ], [ 23.603013685205152, -11.589897916597781 ], [ 23.066278932436038, -12.016836016674162 ], [ 22.522174829723411, -12.434341778955634 ], [ 21.970867116447813, -12.842288027142548 ], [ 21.412523726279343, -13.240550496855832 ], [ 20.847314736023439, -13.629007873489158 ], [ 20.275412313813831, -14.007541829162538 ], [ 19.696990666668484, -14.37603705876613 ], [ 19.112225987424395, -14.734381315083301 ], [ 18.521296401067612, -15.082465442982222 ], [ 17.924381910474608, -15.420183412665565 ], [ 17.321664341581652, -15.747432351968214 ], [ 16.713327287998887, -16.064112577693137 ], [ 16.099556055085927, -16.370127625975819 ], [ 15.48053760350605, -16.665384281668121 ], [ 14.856460492276181, -16.949792606732501 ], [ 14.227514821329963, -17.223265967638021 ], [ 13.593892173611506, -17.485721061749761 ], [ 12.955785556717345, -17.737077942703579 ], [ 12.313389344104461, -17.977260044758602 ], [ 11.666899215882246, -18.206194206119843 ], [ 11.016512099206453, -18.423810691224009 ], [ 10.362426108293256, -18.630043211981654 ], [ 9.704840484071767, -18.824828947969124 ], [ 9.043955533493294, -19.008108565564307 ], [ 8.379972568515923, -19.179826236020215 ], [ 7.71309384478293, -19.339929652470964 ], [ 7.043522500013765, -19.488370045864944 ], [ 6.371462492126328, -19.625102199820354 ], [ 5.697118537109413, -19.75008446439854 ], [ 5.020696046664236, -19.863278768790988 ], [ 4.342401065634035, -19.96465063291604 ], [ 3.662440209240826, -20.054169177921871 ], [ 2.981020600148394, -20.131807135592485 ], [ 2.298349805370729, -20.197540856653884 ], [ 1.6146357730451, -20.251350317977852 ], [ 0.93008676908904, -20.293219128681212 ], [ 0.244911313760529, -20.323134535118626 ], [ -0.440681881859295, -20.341087424767494 ], [ -1.126483979441559, -20.347072329003719 ], [ -1.812286077025006, -20.341087424767469 ], [ -2.497879272644822, -20.32313453511858 ], [ -3.183054727973322, -20.293219128681152 ], [ -3.867603731929373, -20.251350317977778 ], [ -4.55131776425499, -20.197540856653784 ], [ -5.233988559032645, -20.131807135592368 ], [ -5.915408168125066, -20.054169177921736 ], [ -6.595369024518265, -19.96465063291588 ], [ -7.273664005548452, -19.863278768790813 ], [ -7.950086495993618, -19.750084464398348 ], [ -8.624430451010523, -19.625102199820141 ], [ -9.296490458897946, -19.48837004586472 ], [ -9.966061803667099, -19.339929652470726 ], [ -10.632940527400079, -19.179826236019956 ], [ -11.296923492377438, -19.008108565564033 ], [ -11.957808442955898, -18.824828947968832 ], [ -12.615394067177375, -18.630043211981349 ], [ -13.269480058090556, -18.423810691223693 ], [ -13.919867174766337, -18.206194206119505 ], [ -14.566357302988537, -17.977260044758253 ], [ -15.208753515601405, -17.73707794270322 ], [ -15.846860132495554, -17.485721061749384 ], [ -16.480482780213993, -17.223265967637641 ], [ -17.109428451160195, -16.9497926067321 ], [ -17.733505562390047, -16.665384281667709 ], [ -18.352524013969909, -16.370127625975396 ], [ -18.966295246882854, -16.064112577692701 ], [ -19.574632300465606, -15.747432351967774 ], [ -20.177349869358544, -15.420183412665107 ], [ -20.774264359951534, -15.082465442981757 ], [ -21.365193946308302, -14.734381315082825 ], [ -21.94995862555237, -14.376037058765643 ], [ -22.528380272697706, -14.007541829162047 ], [ -23.1002826949073, -13.629007873488657 ], [ -23.665491685163179, -13.240550496855324 ], [ -24.223835075331635, -12.842288027142033 ], [ -24.775142788607223, -12.434341778955112 ], [ -25.319246891319832, -12.016836016673633 ], [ -25.855981644088928, -11.589897916597245 ], [ -26.385183552309353, -11.153657528207084 ], [ -26.906691415953354, -10.708247734551399 ], [ -27.420346378673731, -10.253804211768129 ], [ -27.925991976192922, -9.790465387756596 ], [ -28.423474183963648, -9.318372400011068 ], [ -28.9126414640862, -8.837669052628875 ], [ -29.393344811468371, -8.348501772506305 ], [ -29.865437799213879, -7.851019564735561 ], [ -30.328776623225387, -7.345373967216343 ], [ -30.783220146008635, -6.831719004495955 ], [ -31.228629939664295, -6.310211140851925 ], [ -31.664870328054437, -5.781009232631492 ], [ -32.091808428130804, -5.244274479862373 ], [ -32.509314190412262, -4.700170377149748 ], [ -32.917260438599151, -4.148862663874144 ], [ -33.315522908312417, -3.590519273705675 ], [ -33.703980284945736, -3.025310283449766 ], [ -34.082514240619098, -2.453407861240168 ], [ -34.451009470222672, -1.87498621409481 ], [ -34.809353726539825, -1.290221534850723 ], [ -35.157437854438726, -0.699291948493944 ], [ -35.495155824122051, -0.10237745790094 ], [ -35.822404763424693, 0.500340110992016 ], [ -36.139084989149595, 1.108677164574778 ], [ -36.445100037432269, 1.722448397487736 ], [ -36.740356693124554, 2.341466849067608 ], [ -37.024765018188923, 2.965543960297477 ], [ -37.298238379094428, 3.594489631243689 ], [ -37.560693473206143, 4.228112278962142 ], [ -37.81205035415995, 4.866218895856301 ], [ -38.052232456214959, 5.508615108469179 ], [ -38.28116661757619, 6.155105236691392 ], [ -38.498783102680342, 6.80549235336718 ], [ -38.705015623437966, 7.459578344280369 ], [ -38.899801359425425, 8.117163968501854 ], [ -39.0830809770206, 8.778048919080323 ], [ -39.254798647476491, 9.442031884057689 ], [ -39.414902063927229, 10.108910607790676 ], [ -39.563342457321198, 10.778481952559833 ], [ -39.700074611276591, 11.450541960447264 ], [ -39.82505687585477, 12.124885915464173 ], [ -39.938251180247207, 12.801308405909342 ], [ -40.039623044372249, 13.479603386939536 ], [ -40.129141589378072, 14.159564243332737 ], [ -40.206779547048669, 14.840983852425163 ], [ -40.272513268110067, 15.52365464720282 ], [ -40.326322729434018, 16.207368679528443 ], [ -40.368191540137367, 16.891917683484493 ], [ -40.398106946574771, 17.577093138812995 ], [ -40.416059836223631, 18.262686334432811 ], [ -40.422044740459846, 18.948488432015065 ], [ -40.416059836223617, 19.634290529597315 ], [ -40.398106946574735, 20.319883725217132 ], [ -40.368191540137317, 21.005059180545633 ], [ -40.326322729433947, 21.689608184501687 ], [ -40.272513268109982, 22.373322216827304 ], [ -40.206779547048569, 23.055993011604958 ], [ -40.129141589377944, 23.737412620697381 ], [ -40.039623044372107, 24.417373477090582 ], [ -39.93825118024705, 25.09566845812077 ], [ -39.825056875854607, 25.772090948565939 ], [ -39.700074611276406, 26.446434903582844 ], [ -39.563342457320992, 27.118494911470272 ], [ -39.414902063927009, 27.788066256239428 ], [ -39.254798647476257, 28.45494497997241 ], [ -39.083080977020344, 29.118927944949771 ], [ -38.899801359425155, 29.779812895528234 ], [ -38.705015623437681, 30.437398519749713 ], [ -38.498783102680036, 31.091484510662902 ], [ -38.281166617575863, 31.741871627338682 ], [ -38.052232456214625, 32.388361755560886 ], [ -37.812050354159602, 33.030757968173759 ], [ -37.560693473205781, 33.668864585067922 ], [ -37.298238379094037, 34.302487232786362 ], [ -37.024765018188518, 34.931432903732563 ], [ -36.740356693124134, 35.555510014962422 ], [ -36.445100037431828, 36.174528466542291 ], [ -36.139084989149154, 36.788299699455237 ], [ -35.822404763424231, 37.396636753037996 ], [ -35.495155824121575, 37.999354321930944 ], [ -35.157437854438236, 38.596268812523938 ], [ -34.809353726539314, 39.18719839888071 ], [ -34.451009470222147, 39.771963078124784 ], [ -34.082514240618558, 40.350384725270132 ], [ -33.703980284945182, 40.922287147479729 ], [ -33.315522908311856, 41.487496137735619 ], [ -32.917260438598575, 42.045839527904086 ], [ -32.509314190411665, 42.597147241179677 ], [ -32.091808428130193, 43.1412513438923 ], [ -31.664870328053816, 43.677986096661392 ], [ -31.228629939663659, 44.207188004881829 ], [ -30.783220146007988, 44.72869586852584 ], [ -30.328776623224723, 45.242350831246213 ], [ -29.865437799213201, 45.747996428765425 ], [ -29.393344811467689, 46.245478636536156 ], [ -28.912641464085496, 46.734645916658714 ], [ -28.423474183962941, 47.215349264040896 ], [ -27.925991976192204, 47.687442251786408 ], [ -27.420346378672992, 48.15078107579793 ], [ -26.906691415952615, 48.605224598581195 ], [ -26.38518355230859, 49.050634392236859 ], [ -25.85598164408816, 49.486874780627005 ], [ -25.319246891319054, 49.913812880703382 ], [ -24.775142788606434, 50.331318642984847 ], [ -24.22383507533084, 50.73926489117175 ], [ -23.665491685162376, 51.137527360885038 ], [ -23.100282694906475, 51.52598473751835 ], [ -22.528380272696879, 51.904518693191733 ], [ -21.949958625551535, 52.273013922795315 ], [ -21.365193946307453, 52.631358179112475 ], [ -20.774264359950678, 52.979442307011396 ], [ -20.17734986935768, 53.317160276694722 ], [ -19.574632300464732, 53.644409215997378 ], [ -18.966295246881977, 53.961089441722287 ], [ -18.35252401396902, 54.267104490004961 ], [ -17.733505562389155, 54.56236114569726 ], [ -17.109428451159292, 54.846769470761643 ], [ -16.480482780213077, 55.12024283166717 ], [ -15.846860132494621, 55.382697925778906 ], [ -15.208753515600462, 55.634054806732721 ], [ -14.566357302987573, 55.874236908787736 ], [ -13.919867174765361, 56.103171070148989 ], [ -13.269480058089568, 56.320787555253148 ], [ -12.615394067176371, 56.5270200760108 ], [ -11.957808442954882, 56.721805811998259 ], [ -11.296923492376409, 56.905085429593441 ], [ -10.632940527399036, 57.076803100049361 ], [ -9.966061803666044, 57.236906516500106 ], [ -9.29649045889688, 57.385346909894089 ], [ -8.624430451009442, 57.522079063849496 ], [ -7.950086495992526, 57.647061328427675 ], [ -7.273664005547348, 57.760255632820133 ], [ -6.595369024517148, 57.861627496945182 ], [ -5.91540816812394, 57.951146041951006 ], [ -5.233988559031508, 58.028783999621631 ], [ -4.551317764253842, 58.094517720683029 ], [ -3.867603731928213, 58.148327182006994 ], [ -3.183054727972154, 58.190195992710343 ], [ -2.497879272643643, 58.220111399147768 ], [ -1.812286077023819, 58.238064288796643 ], [ -1.126483979441559, 58.244049193032858 ] ] ] } },
{ "type": "Feature", "properties": { "id": 0 }, "geometry": { "type": "MultiLineString", "coordinates": [ [ [ -1.126483979441559, 44.163768772060791 ], [ -0.686416658517116, 44.15992836273206 ], [ -0.246483386361566, 44.148408304571717 ], [ 0.193181829088576, 44.12921210670109 ], [ 0.632445061549548, 44.102345616468014 ], [ 1.071172507185507, 44.067817017665647 ], [ 1.509230525366463, 44.025636828039708 ], [ 1.946485679376514, 43.975817896084536 ], [ 2.382804777059965, 43.918375397129438 ], [ 2.81805491139294, 43.853326828716035 ], [ 3.252103500968162, 43.780692005268406 ], [ 3.684818330380521, 43.700493052057411 ], [ 4.116067590501177, 43.612754398461107 ], [ 4.54571991862789, 43.517502770523294 ], [ 4.973644438499379, 43.414767182812597 ], [ 5.399710800161492, 43.304578929584238 ], [ 5.82378921967307, 43.186971575247568 ], [ 6.245750518639388, 43.061980944142022 ], [ 6.665466163561153, 42.92964510962463 ], [ 7.082808304987043, 42.79000438247256 ], [ 7.497649816457894, 42.643101298604023 ], [ 7.909864333230654, 42.488980606121459 ], [ 8.319326290770306, 42.327689251680795 ], [ 8.72591096299803, 42.159276366191051 ], [ 9.129494500283995, 41.983793249848603 ], [ 9.529953967173141, 41.801293356510641 ], [ 9.927167379832515, 41.611832277412589 ], [ 10.321013743208731, 41.415467724234475 ], [ 10.711373087884224, 41.212259511521438 ], [ 11.098126506621115, 41.002269538463594 ], [ 11.481156190581492, 40.785561770040957 ], [ 11.860345465213122, 40.562202217539067 ], [ 12.235578825789675, 40.332258918441354 ], [ 12.606741972594541, 40.095801915704257 ], [ 12.973721845737671, 39.852903236421398 ], [ 13.336406659594688, 39.603636869883502 ], [ 13.694685936857891, 39.34807874504051 ], [ 14.048450542188693, 39.086306707372898 ], [ 14.397592715461311, 38.818400495179191 ], [ 14.742006104587556, 38.544441715286894 ], [ 15.081585797912687, 38.264513818194239 ], [ 15.416228356172544, 37.978702072650414 ], [ 15.745831844002113, 37.687093539681833 ], [ 16.070295860986075, 37.38977704607251 ], [ 16.389521572241694, 37.086843157306575 ], [ 16.703411738524913, 36.778384149981136 ], [ 17.011870745850363, 36.464493983697913 ], [ 17.314804634616298, 36.145268272442294 ], [ 17.61212112822562, 35.820804255458341 ], [ 17.903729661194202, 35.491200767628769 ], [ 18.189541406738027, 35.156558209368917 ], [ 18.469469303830678, 34.816978516043783 ], [ 18.743428083722989, 34.472565126917544 ], [ 19.011334295916694, 34.123422953644919 ], [ 19.273106333584305, 33.769658348314124 ], [ 19.528664458427293, 33.411379071050916 ], [ 19.777930824965196, 33.048694257193901 ], [ 20.020829504248063, 32.681714384050778 ], [ 20.257286506985171, 32.31055123724591 ], [ 20.487229806082876, 31.935317876669362 ], [ 20.710589358584762, 31.556128602037727 ], [ 20.927297127007407, 31.173098918077354 ], [ 21.137287100065254, 30.786345499340463 ], [ 21.340495312778291, 30.395986154664975 ], [ 21.536859865956394, 30.002139791288755 ], [ 21.726320945054457, 29.604926378629379 ], [ 21.908820838392423, 29.204466911740237 ], [ 22.084303954734871, 28.80088337445428 ], [ 22.252716840224615, 28.394298702226553 ], [ 22.414008194665282, 27.984836744686902 ], [ 22.56812888714785, 27.572622227914145 ], [ 22.715031971016387, 27.157780716443288 ], [ 22.854672698168461, 26.740438575017404 ], [ 22.987008532685856, 26.320722930095638 ], [ 23.111999163791406, 25.898761631129322 ], [ 23.229606518128076, 25.474683211617744 ], [ 23.339794771356434, 25.048616849955632 ], [ 23.442530359067135, 24.620692330084143 ], [ 23.537781987004944, 24.191040001957429 ], [ 23.625520640601263, 23.759790741836778 ], [ 23.705719593812258, 23.327075912424419 ], [ 23.778354417259884, 22.8930273228492 ], [ 23.843402985673293, 22.457777188516225 ], [ 23.900845484628398, 22.021458090832773 ], [ 23.950664416583564, 21.58420293682272 ], [ 23.992844606209509, 21.146144918641767 ], [ 24.027373205011866, 20.707417473005808 ], [ 24.054239695244949, 20.268154240544838 ], [ 24.073435893115576, 19.828489025094697 ], [ 24.084955951275923, 19.388555752939148 ], [ 24.088796360604665, 18.948488432014617 ], [ 24.084955951275923, 18.508421111090087 ], [ 24.07343589311558, 18.068487838934537 ], [ 24.054239695244956, 17.628822623484396 ], [ 24.02737320501187, 17.189559391023423 ], [ 23.99284460620952, 16.750831945387468 ], [ 23.950664416583574, 16.312773927206511 ], [ 23.900845484628409, 15.875518773196461 ], [ 23.843402985673308, 15.439199675513009 ], [ 23.778354417259902, 15.003949541180035 ], [ 23.705719593812272, 14.569900951604815 ], [ 23.625520640601277, 14.137186122192457 ], [ 23.537781987004962, 13.705936862071802 ], [ 23.44253035906716, 13.276284533945089 ], [ 23.339794771356459, 12.848360014073602 ], [ 23.229606518128097, 12.42229365241149 ], [ 23.111999163791435, 11.998215232899909 ], [ 22.987008532685884, 11.576253933933593 ], [ 22.854672698168493, 11.156538289011827 ], [ 22.715031971016419, 10.73919614758594 ], [ 22.568128887147882, 10.324354636115087 ], [ 22.414008194665314, 9.912140119342327 ], [ 22.252716840224647, 9.502678161802677 ], [ 22.084303954734903, 9.096093489574951 ], [ 21.908820838392458, 8.692509952288987 ], [ 21.726320945054493, 8.292050485399843 ], [ 21.536859865956441, 7.894837072740469 ], [ 21.34049531277833, 7.500990709364255 ], [ 21.137287100065297, 7.110631364688758 ], [ 20.927297127007453, 6.72387794595187 ], [ 20.710589358584805, 6.340848261991495 ], [ 20.487229806082926, 5.96165898735986 ], [ 20.257286506985213, 5.586425626783313 ], [ 20.020829504248113, 5.215262479978444 ], [ 19.777930824965249, 4.848282606835315 ], [ 19.528664458427347, 4.485597792978295 ], [ 19.273106333584359, 4.127318515715093 ], [ 19.011334295916754, 3.773553910384297 ], [ 18.743428083723046, 3.424411737111675 ], [ 18.469469303830738, 3.079998347985431 ], [ 18.189541406738083, 2.740418654660298 ], [ 17.903729661194262, 2.405776096400444 ], [ 17.612121128225681, 2.076172608570869 ], [ 17.314804634616365, 1.751708591586913 ], [ 17.01187074585043, 1.432482880331294 ], [ 16.703411738524981, 1.118592714048077 ], [ 16.389521572241758, 0.810133706722631 ], [ 16.070295860986143, 0.507199817956693 ], [ 15.745831844002184, 0.20988332434737 ], [ 15.416228356172612, -0.081725208621212 ], [ 15.08158579791276, -0.367536954165034 ], [ 14.742006104587627, -0.647464851257689 ], [ 14.397592715461382, -0.921423631149997 ], [ 14.048450542188762, -1.189329843343702 ], [ 13.694685936857965, -1.451101881011311 ], [ 13.336406659594765, -1.706660005854301 ], [ 12.973721845737746, -1.9559263723922 ], [ 12.606741972594614, -2.198825051675064 ], [ 12.235578825789752, -2.435282054412172 ], [ 11.860345465213202, -2.665225353509877 ], [ 11.481156190581569, -2.888584906011765 ], [ 11.098126506621195, -3.105292674434409 ], [ 10.711373087884304, -3.315282647492253 ], [ 10.321013743208811, -3.51849086020529 ], [ 9.927167379832598, -3.714855413383399 ], [ 9.529953967173222, -3.904316492481458 ], [ 9.129494500284078, -4.086816385819423 ], [ 8.725910962998112, -4.262299502161866 ], [ 8.319326290770388, -4.430712387651612 ], [ 7.90986433323074, -4.592003742092277 ], [ 7.497649816457979, -4.746124434574847 ], [ 7.082808304987126, -4.893027518443384 ], [ 6.665466163561238, -5.032668245595456 ], [ 6.245750518639473, -5.165004080112853 ], [ 5.823789219673155, -5.289994711218407 ], [ 5.399710800161579, -5.407602065555071 ], [ 4.973644438499466, -5.51779031878343 ], [ 4.545719918627978, -5.62052590649413 ], [ 4.116067590501265, -5.715777534431936 ], [ 3.68481833038061, -5.803516188028253 ], [ 3.25210350096825, -5.88371514123925 ], [ 2.81805491139303, -5.956349964686877 ], [ 2.382804777060053, -6.021398533100285 ], [ 1.946485679376603, -6.07884103205539 ], [ 1.509230525366552, -6.128659964010554 ], [ 1.071172507185596, -6.170840153636497 ], [ 0.632445061549638, -6.205368752438853 ], [ 0.193181829088665, -6.232235242671939 ], [ -0.246483386361476, -6.251431440542568 ], [ -0.686416658517026, -6.262951498702908 ], [ -1.126483979441559, -6.266791908031649 ], [ -1.566551300366851, -6.262951498702892 ], [ -2.006484572522396, -6.251431440542538 ], [ -2.44614978797253, -6.2322352426719 ], [ -2.885413020433497, -6.205368752438805 ], [ -3.324140466069448, -6.170840153636433 ], [ -3.762198484250397, -6.128659964010478 ], [ -4.199453638260441, -6.078841032055303 ], [ -4.635772735943885, -6.021398533100182 ], [ -5.071022870276853, -5.956349964686765 ], [ -5.505071459852067, -5.883715141239128 ], [ -5.93778628926442, -5.803516188028116 ], [ -6.369035549385066, -5.715777534431792 ], [ -6.798687877511771, -5.620525906493977 ], [ -7.226612397383251, -5.517790318783263 ], [ -7.652678759045355, -5.407602065554896 ], [ -8.076757178556923, -5.28999471121822 ], [ -8.498718477523234, -5.165004080112658 ], [ -8.918434122444989, -5.032668245595254 ], [ -9.335776263870869, -4.893027518443168 ], [ -9.750617775341713, -4.746124434574623 ], [ -10.162832292114462, -4.592003742092048 ], [ -10.572294249654103, -4.43071238765137 ], [ -10.978878921881815, -4.262299502161621 ], [ -11.382462459167771, -4.086816385819166 ], [ -11.782921926056904, -3.904316492481193 ], [ -12.180135338716271, -3.714855413383127 ], [ -12.573981702092475, -3.518490860205009 ], [ -12.964341046767959, -3.315282647491971 ], [ -13.351094465504838, -3.105292674434116 ], [ -13.734124149465202, -2.888584906011467 ], [ -14.113313424096827, -2.665225353509571 ], [ -14.488546784673364, -2.435282054411859 ], [ -14.85970993147822, -2.198825051674749 ], [ -15.226689804621342, -1.955926372391879 ], [ -15.589374618478345, -1.706660005853976 ], [ -15.947653895741535, -1.451101881010981 ], [ -16.301418501072327, -1.189329843343367 ], [ -16.650560674344934, -0.921423631149657 ], [ -16.994974063471165, -0.647464851257344 ], [ -17.334553756796293, -0.367536954164688 ], [ -17.66919631505613, -0.081725208620859 ], [ -17.998799802885696, 0.209883324347724 ], [ -18.323263819869641, 0.50719981795705 ], [ -18.642489531125246, 0.810133706722988 ], [ -18.956379697408458, 1.118592714048438 ], [ -19.264838704733894, 1.432482880331661 ], [ -19.567772593499821, 1.751708591587279 ], [ -19.86508908710913, 2.076172608571239 ], [ -20.156697620077697, 2.405776096400813 ], [ -20.442509365621511, 2.740418654660671 ], [ -20.722437262714156, 3.079998347985801 ], [ -20.996396042606456, 3.424411737112049 ], [ -21.26430225480015, 3.773553910384667 ], [ -21.526074292467744, 4.127318515715469 ], [ -21.781632417310721, 4.485597792978668 ], [ -22.030898783848617, 4.848282606835689 ], [ -22.273797463131469, 5.215262479978816 ], [ -22.510254465868567, 5.586425626783685 ], [ -22.740197764966258, 5.961658987360234 ], [ -22.963557317468133, 6.340848261991865 ], [ -23.180265085890767, 6.723877945952239 ], [ -23.390255058948604, 7.110631364689128 ], [ -23.59346327166163, 7.50099070936462 ], [ -23.789827824839733, 7.894837072740833 ], [ -23.979288903937782, 8.292050485400205 ], [ -24.16178879727574, 8.692509952289349 ], [ -24.337271913618174, 9.09609348957531 ], [ -24.505684799107904, 9.502678161803033 ], [ -24.666976153548564, 9.912140119342681 ], [ -24.821096846031121, 10.324354636115437 ], [ -24.967999929899651, 10.739196147586288 ], [ -25.107640657051718, 11.156538289012172 ], [ -25.239976491569099, 11.576253933933934 ], [ -25.364967122674646, 11.998215232900247 ], [ -25.482574477011305, 12.422293652411822 ], [ -25.592762730239652, 12.848360014073931 ], [ -25.695498317950346, 13.276284533945415 ], [ -25.790749945888145, 13.705936862072123 ], [ -25.878488599484452, 14.137186122192777 ], [ -25.958687552695444, 14.569900951605131 ], [ -26.031322376143063, 15.003949541180347 ], [ -26.096370944556465, 15.439199675513319 ], [ -26.153813443511563, 15.875518773196763 ], [ -26.203632375466718, 16.312773927206813 ], [ -26.245812565092663, 16.750831945387759 ], [ -26.280341163895006, 17.189559391023714 ], [ -26.307207654128085, 17.62882262348468 ], [ -26.326403851998705, 18.068487838934814 ], [ -26.337923910159041, 18.508421111090364 ], [ -26.341764319487776, 18.948488432014891 ], [ -26.337923910159031, 19.388555752939411 ], [ -26.326403851998684, 19.82848902509496 ], [ -26.307207654128053, 20.268154240545094 ], [ -26.28034116389496, 20.707417473006061 ], [ -26.245812565092606, 21.146144918642015 ], [ -26.203632375466654, 21.584202936822962 ], [ -26.153813443511481, 22.021458090833008 ], [ -26.096370944556373, 22.457777188516452 ], [ -26.031322376142963, 22.89302732284942 ], [ -25.958687552695338, 23.327075912424636 ], [ -25.878488599484331, 23.759790741836987 ], [ -25.790749945888013, 24.191040001957639 ], [ -25.695498317950204, 24.620692330084346 ], [ -25.5927627302395, 25.048616849955827 ], [ -25.482574477011141, 25.474683211617933 ], [ -25.364967122674472, 25.898761631129503 ], [ -25.239976491568918, 26.320722930095815 ], [ -25.107640657051519, 26.740438575017574 ], [ -24.967999929899442, 27.157780716443455 ], [ -24.821096846030908, 27.572622227914298 ], [ -24.66697615354834, 27.984836744687055 ], [ -24.505684799107669, 28.394298702226703 ], [ -24.337271913617922, 28.800883374454415 ], [ -24.161788797275477, 29.204466911740372 ], [ -23.979288903937512, 29.604926378629507 ], [ -23.789827824839449, 30.002139791288879 ], [ -23.593463271661346, 30.395986154665085 ], [ -23.390255058948309, 30.786345499340573 ], [ -23.180265085890461, 31.173098918077457 ], [ -22.963557317467821, 31.556128602037823 ], [ -22.740197764965931, 31.935317876669451 ], [ -22.510254465868229, 32.310551237245988 ], [ -22.273797463131125, 32.681714384050856 ], [ -22.030898783848262, 33.048694257193979 ], [ -21.781632417310362, 33.411379071050987 ], [ -21.526074292467374, 33.769658348314188 ], [ -21.26430225479977, 34.123422953644976 ], [ -20.996396042606062, 34.472565126917601 ], [ -20.722437262713758, 34.816978516043832 ], [ -20.442509365621103, 35.156558209368967 ], [ -20.156697620077281, 35.491200767628811 ], [ -19.865089087108704, 35.82080425545837 ], [ -19.567772593499384, 36.145268272442323 ], [ -19.264838704733457, 36.464493983697935 ], [ -18.956379697408007, 36.77838414998115 ], [ -18.642489531124792, 37.086843157306596 ], [ -18.32326381986918, 37.389777046072524 ], [ -17.998799802885223, 37.68709353968184 ], [ -17.669196315055657, 37.978702072650421 ], [ -17.334553756795803, 38.264513818194239 ], [ -16.994974063470675, 38.544441715286879 ], [ -16.650560674344433, 38.818400495179191 ], [ -16.301418501071819, 39.086306707372884 ], [ -15.947653895741025, 39.348078745040496 ], [ -15.58937461847783, 39.603636869883488 ], [ -15.226689804620813, 39.852903236421369 ], [ -14.859709931477688, 40.095801915704243 ], [ -14.488546784672828, 40.33225891844134 ], [ -14.113313424096283, 40.562202217539038 ], [ -13.734124149464654, 40.785561770040928 ], [ -13.351094465504284, 41.002269538463565 ], [ -12.964341046767398, 41.21225951152141 ], [ -12.573981702091912, 41.415467724234432 ], [ -12.180135338715701, 41.611832277412546 ], [ -11.782921926056332, 41.801293356510598 ], [ -11.382462459167192, 41.98379324984856 ], [ -10.978878921881227, 42.159276366191008 ], [ -10.572294249653504, 42.327689251680752 ], [ -10.162832292113857, 42.488980606121416 ], [ -9.750617775341095, 42.64310129860398 ], [ -9.335776263870242, 42.790004382472532 ], [ -8.918434122444355, 42.929645109624602 ], [ -8.498718477522591, 43.061980944141993 ], [ -8.076757178556271, 43.18697157524754 ], [ -7.652678759044695, 43.30457892958421 ], [ -7.226612397382582, 43.414767182812568 ], [ -6.798687877511094, 43.517502770523279 ], [ -6.369035549384382, 43.612754398461078 ], [ -5.937786289263725, 43.700493052057396 ], [ -5.505071459851365, 43.780692005268392 ], [ -5.071022870276145, 43.853326828716021 ], [ -4.635772735943168, 43.918375397129424 ], [ -4.199453638259719, 43.975817896084536 ], [ -3.762198484249668, 44.025636828039694 ], [ -3.324140466068712, 44.067817017665647 ], [ -2.885413020432753, 44.102345616468 ], [ -2.446149787971781, 44.129212106701075 ], [ -2.006484572521639, 44.148408304571717 ], [ -1.56655130036609, 44.15992836273206 ], [ -1.126483979441559, 44.163768772060791 ] ] ] } },
{ "type": "Feature", "properties": { "id": 0 }, "geometry": { "type": "MultiLineString", "coordinates": [ [ [ -1.126483979441559, 32.304801737061169 ], [ -0.893384171138235, 32.30276750585206 ], [ -0.660355367294562, 32.296665431871247 ], [ -0.427468550741638, 32.28649737386958 ], [ -0.19479466105981, 32.272266429136039 ], [ 0.037595427030161, 32.253976932554231 ], [ 0.269630925256231, 32.231634455282006 ], [ 0.50124115335786, 32.205245803054353 ], [ 0.732355560615912, 32.174819014110412 ], [ 0.962903747343079, 32.140363356744814 ], [ 1.192815486328314, 32.101889326484574 ], [ 1.422020744228718, 32.059408642892024 ], [ 1.650449702902372, 32.01293424599492 ], [ 1.878032780675623, 31.962480292344733 ], [ 2.104700653538335, 31.908062150704524 ], [ 2.330384276260653, 31.849696397367392 ], [ 2.555014903424849, 31.787400811107204 ], [ 2.778524110365844, 31.721194367763012 ], [ 3.000843814014021, 31.65109723445881 ], [ 3.221906293633989, 31.577130763460449 ], [ 3.441644211452975, 31.499317485671519 ], [ 3.659990633172563, 31.417681103770239 ], [ 3.87687904835753, 31.332246484989358 ], [ 4.092243390695562, 31.243039653541384 ], [ 4.306018058121703, 31.15008778269134 ], [ 4.518137932801373, 31.053419186479534 ], [ 4.728538400965895, 30.953063311096823 ], [ 4.937155372594469, 30.84905072591501 ], [ 5.143925300936618, 30.741413114175138 ], [ 5.348785201869147, 30.630183263336459 ], [ 5.551672673081707, 30.515395055089041 ], [ 5.75252591308515, 30.397083455033091 ], [ 5.951283740036868, 30.275284502028093 ], [ 6.147885610377355, 30.150035297215044 ], [ 6.342271637272384, 30.021373992715031 ], [ 6.534382608855099, 29.889339780007774 ], [ 6.72416000626254, 29.753972877993512 ], [ 6.91154602146104, 29.615314520741922 ], [ 7.096483574855118, 29.473406944931845 ], [ 7.278916332674484, 29.328293376985567 ], [ 7.458788724133836, 29.180018019901613 ], [ 7.636045958360278, 29.028626039790137 ], [ 7.810634041083127, 28.874163552114844 ], [ 7.982499791081123, 28.716677607645796 ], [ 8.151590856381908, 28.556216178127279 ], [ 8.317855730208974, 28.392828141665152 ], [ 8.481243766671106, 28.226563267838088 ], [ 8.641705196189623, 28.057472202537301 ], [ 8.799191140658671, 27.88560645253931 ], [ 8.953653628333962, 27.711018369816458 ], [ 9.105045608445437, 27.533761135590019 ], [ 9.253320965529388, 27.353888744130668 ], [ 9.398434533475678, 27.171455986311305 ], [ 9.540342109285753, 26.986518432917222 ], [ 9.679000466537341, 26.799132417718724 ], [ 9.814367368551602, 26.609355020311281 ], [ 9.94640158125886, 26.417244048728566 ], [ 10.075062885758879, 26.222858021833542 ], [ 10.200312090571934, 26.026256151493055 ], [ 10.322111043576927, 25.827498324541338 ], [ 10.440422643632877, 25.626645084537895 ], [ 10.555210851880297, 25.423757613325336 ], [ 10.66644070271898, 25.218897712392806 ], [ 10.774078314458849, 25.012127784050659 ], [ 10.878090899640657, 24.803510812422083 ], [ 10.978446775023373, 24.59311034425756 ], [ 11.075115371235182, 24.380990469577895 ], [ 11.168067242085227, 24.167215802151755 ], [ 11.257274073533203, 23.951851459813724 ], [ 11.342708692314083, 23.734963044628756 ], [ 11.424345074215365, 23.516616622909169 ], [ 11.502158352004294, 23.29687870509018 ], [ 11.576124823002656, 23.075816225470216 ], [ 11.646221956306862, 22.853496521822038 ], [ 11.712428399651056, 22.629987314881046 ], [ 11.774723985911244, 22.405356687716846 ], [ 11.833089739248377, 22.179673064994532 ], [ 11.887507880888586, 21.953005192131819 ], [ 11.93796183453877, 21.725422114358565 ], [ 11.984436231435888, 21.496993155684915 ], [ 12.026916915028433, 21.267787897784515 ], [ 12.065390945288668, 21.037876158799278 ], [ 12.099846602654271, 20.807327972072112 ], [ 12.130273391598223, 20.576213564814061 ], [ 12.156662043825865, 20.344603336712428 ], [ 12.179004521098095, 20.11256783848636 ], [ 12.197294017679901, 19.880177750396392 ], [ 12.211524962413446, 19.647503860714565 ], [ 12.221693020415108, 19.414617044161638 ], [ 12.227795094395923, 19.181588240317964 ], [ 12.229829325605037, 18.948488432014596 ], [ 12.227795094395923, 18.715388623711227 ], [ 12.22169302041511, 18.482359819867554 ], [ 12.211524962413449, 18.249473003314627 ], [ 12.197294017679903, 18.0167991136328 ], [ 12.179004521098102, 17.784409025542832 ], [ 12.156662043825872, 17.55237352731676 ], [ 12.130273391598228, 17.32076329921513 ], [ 12.099846602654278, 17.089648891957079 ], [ 12.065390945288677, 16.859100705229913 ], [ 12.026916915028441, 16.62918896624468 ], [ 11.984436231435895, 16.399983708344276 ], [ 11.937961834538779, 16.171554749670623 ], [ 11.887507880888599, 15.943971671897373 ], [ 11.83308973924839, 15.71730379903466 ], [ 11.774723985911256, 15.491620176312344 ], [ 11.712428399651071, 15.266989549148146 ], [ 11.646221956306878, 15.043480342207152 ], [ 11.576124823002674, 14.821160638558975 ], [ 11.502158352004312, 14.600098158939009 ], [ 11.424345074215383, 14.380360241120021 ], [ 11.342708692314099, 14.162013819400432 ], [ 11.257274073533219, 13.945125404215467 ], [ 11.168067242085245, 13.729761061877433 ], [ 11.075115371235199, 13.515986394451293 ], [ 10.978446775023393, 13.303866519771624 ], [ 10.878090899640682, 13.093466051607102 ], [ 10.774078314458869, 12.88484907997853 ], [ 10.666440702719003, 12.678079151636378 ], [ 10.555210851880322, 12.473219250703853 ], [ 10.440422643632898, 12.270331779491292 ], [ 10.322111043576953, 12.069478539487847 ], [ 10.200312090571957, 11.870720712536132 ], [ 10.075062885758905, 11.674118842195643 ], [ 9.946401581258888, 11.479732815300615 ], [ 9.814367368551631, 11.287621843717899 ], [ 9.679000466537369, 11.097844446310457 ], [ 9.540342109285785, 10.910458431111961 ], [ 9.398434533475708, 10.72552087771788 ], [ 9.25332096552942, 10.543088119898515 ], [ 9.105045608445467, 10.363215728439162 ], [ 8.953653628333994, 10.185958494212722 ], [ 8.799191140658703, 10.011370411489869 ], [ 8.641705196189658, 9.839504661491876 ], [ 8.481243766671142, 9.670413596191091 ], [ 8.317855730209009, 9.504148722364027 ], [ 8.151590856381942, 9.340760685901897 ], [ 7.982499791081159, 9.180299256383378 ], [ 7.810634041083166, 9.02281331191433 ], [ 7.636045958360313, 8.868350824239039 ], [ 7.458788724133875, 8.716958844127564 ], [ 7.278916332674521, 8.568683487043611 ], [ 7.096483574855156, 8.423569919097325 ], [ 6.911546021461077, 8.281662343287248 ], [ 6.724160006262579, 8.143003986035662 ], [ 6.53438260885514, 8.0076370840214 ], [ 6.342271637272423, 7.875602871314143 ], [ 6.147885610377394, 7.746941566814128 ], [ 5.951283740036908, 7.621692362001071 ], [ 5.752525913085193, 7.49989340899608 ], [ 5.551672673081748, 7.381581808940129 ], [ 5.348785201869188, 7.266793600692708 ], [ 5.143925300936661, 7.155563749854028 ], [ 4.937155372594511, 7.047926138114158 ], [ 4.728538400965939, 6.943913552932346 ], [ 4.518137932801417, 6.843557677549631 ], [ 4.306018058121747, 6.746889081337825 ], [ 4.092243390695605, 6.653937210487781 ], [ 3.876879048357573, 6.564730379039805 ], [ 3.659990633172608, 6.479295760258926 ], [ 3.441644211453021, 6.397659378357642 ], [ 3.221906293634033, 6.319846100568714 ], [ 3.000843814014066, 6.245879629570352 ], [ 2.778524110365889, 6.175782496266145 ], [ 2.555014903424895, 6.10957605292195 ], [ 2.330384276260699, 6.047280466661764 ], [ 2.104700653538381, 5.988914713324633 ], [ 1.87803278067567, 5.934496571684424 ], [ 1.650449702902419, 5.88404261803424 ], [ 1.422020744228765, 5.837568221137124 ], [ 1.192815486328362, 5.795087537544577 ], [ 0.962903747343127, 5.756613507284342 ], [ 0.732355560615959, 5.722157849918741 ], [ 0.501241153357907, 5.691731060974787 ], [ 0.269630925256278, 5.665342408747145 ], [ 0.037595427030208, 5.642999931474916 ], [ -0.194794661059763, 5.624710434893112 ], [ -0.42746855074159, 5.610479490159566 ], [ -0.660355367294514, 5.600311432157902 ], [ -0.893384171138188, 5.594209358177091 ], [ -1.126483979441559, 5.592175126967977 ], [ -1.359583787745333, 5.5942093581771 ], [ -1.592612591589003, 5.600311432157918 ], [ -1.825499408141924, 5.610479490159586 ], [ -2.058173297823748, 5.624710434893137 ], [ -2.290563385913715, 5.64299993147495 ], [ -2.522598884139781, 5.665342408747186 ], [ -2.754209112241407, 5.691731060974833 ], [ -2.985323519499456, 5.722157849918794 ], [ -3.215871706226618, 5.756613507284401 ], [ -3.44578344521185, 5.795087537544642 ], [ -3.67498870311225, 5.837568221137197 ], [ -3.903417661785899, 5.884042618034316 ], [ -4.131000739559145, 5.934496571684504 ], [ -4.357668612421852, 5.98891471332472 ], [ -4.583352235144166, 6.047280466661856 ], [ -4.807982862308357, 6.109576052922049 ], [ -5.031492069249348, 6.175782496266249 ], [ -5.25381177289752, 6.245879629570458 ], [ -5.474874252517483, 6.319846100568828 ], [ -5.694612170336465, 6.39765937835776 ], [ -5.912958592056047, 6.479295760259047 ], [ -6.129847007241009, 6.564730379039933 ], [ -6.345211349579034, 6.653937210487911 ], [ -6.558986017005171, 6.746889081337961 ], [ -6.771105891684834, 6.843557677549772 ], [ -6.981506359849351, 6.94391355293249 ], [ -7.190123331477919, 7.047926138114306 ], [ -7.396893259820064, 7.155563749854177 ], [ -7.601753160752585, 7.266793600692863 ], [ -7.804640631965139, 7.381581808940287 ], [ -8.005493871968579, 7.499893408996241 ], [ -8.204251698920288, 7.621692362001237 ], [ -8.40085356926077, 7.746941566814294 ], [ -8.595239596155794, 7.875602871314314 ], [ -8.787350567738503, 8.007637084021573 ], [ -8.977127965145938, 8.143003986035836 ], [ -9.164513980344433, 8.281662343287426 ], [ -9.349451533738504, 8.423569919097504 ], [ -9.531884291557862, 8.568683487043794 ], [ -9.711756683017212, 8.716958844127747 ], [ -9.889013917243643, 8.868350824239227 ], [ -10.063601999966492, 9.022813311914518 ], [ -10.235467749964478, 9.180299256383567 ], [ -10.404558815265258, 9.340760685902087 ], [ -10.570823689092318, 9.504148722364219 ], [ -10.734211725554443, 9.670413596191285 ], [ -10.894673155072956, 9.839504661492072 ], [ -11.052159099541996, 10.011370411490066 ], [ -11.206621587217279, 10.185958494212919 ], [ -11.358013567328751, 10.363215728439361 ], [ -11.506288924412697, 10.543088119898711 ], [ -11.651402492358981, 10.725520877718079 ], [ -11.793310068169051, 10.910458431112156 ], [ -11.93196842542063, 11.097844446310656 ], [ -12.067335327434884, 11.287621843718096 ], [ -12.19936954014214, 11.479732815300814 ], [ -12.32803084464215, 11.67411884219584 ], [ -12.4532800494552, 11.870720712536329 ], [ -12.575079002460184, 12.069478539488045 ], [ -12.693390602516128, 12.270331779491489 ], [ -12.808178810763543, 12.473219250704048 ], [ -12.919408661602221, 12.678079151636574 ], [ -13.027046273342085, 12.884849079978723 ], [ -13.131058858523893, 13.093466051607296 ], [ -13.231414733906602, 13.303866519771816 ], [ -13.328083330118405, 13.515986394451485 ], [ -13.421035200968443, 13.729761061877625 ], [ -13.510242032416413, 13.945125404215656 ], [ -13.595676651197289, 14.16201381940062 ], [ -13.677313033098565, 14.380360241120206 ], [ -13.755126310887491, 14.600098158939192 ], [ -13.82909278188585, 14.821160638559157 ], [ -13.899189915190046, 15.043480342207332 ], [ -13.965396358534239, 15.266989549148324 ], [ -14.027691944794421, 15.491620176312519 ], [ -14.086057698131548, 15.717303799034834 ], [ -14.140475839771753, 15.943971671897545 ], [ -14.190929793421933, 16.171554749670793 ], [ -14.237404190319044, 16.399983708344447 ], [ -14.279884873911588, 16.629188966244847 ], [ -14.318358904171818, 16.859100705230077 ], [ -14.352814561537418, 17.089648891957246 ], [ -14.383241350481367, 17.320763299215294 ], [ -14.409630002709003, 17.552373527316924 ], [ -14.431972479981233, 17.784409025542985 ], [ -14.450261976563031, 18.016799113632956 ], [ -14.464492921296573, 18.24947300331478 ], [ -14.474660979298232, 18.4823598198677 ], [ -14.480763053279041, 18.715388623711373 ], [ -14.482797284488152, 18.948488432014742 ], [ -14.480763053279036, 19.181588240318106 ], [ -14.474660979298221, 19.41461704416178 ], [ -14.464492921296557, 19.6475038607147 ], [ -14.450261976563006, 19.880177750396523 ], [ -14.431972479981203, 20.112567838486491 ], [ -14.409630002708969, 20.344603336712559 ], [ -14.383241350481322, 20.576213564814182 ], [ -14.352814561537368, 20.807327972072233 ], [ -14.318358904171765, 21.037876158799396 ], [ -14.279884873911531, 21.267787897784629 ], [ -14.23740419031898, 21.496993155685026 ], [ -14.190929793421862, 21.725422114358679 ], [ -14.140475839771678, 21.953005192131926 ], [ -14.086057698131468, 22.179673064994635 ], [ -14.027691944794336, 22.405356687716946 ], [ -13.965396358534147, 22.629987314881141 ], [ -13.89918991518995, 22.85349652182213 ], [ -13.829092781885743, 23.075816225470305 ], [ -13.755126310887379, 23.296878705090272 ], [ -13.677313033098452, 23.51661662290925 ], [ -13.59567665119717, 23.734963044628838 ], [ -13.510242032416288, 23.951851459813803 ], [ -13.42103520096831, 24.16721580215183 ], [ -13.328083330118266, 24.380990469577966 ], [ -13.231414733906458, 24.593110344257632 ], [ -13.131058858523742, 24.80351081242215 ], [ -13.027046273341934, 25.012127784050719 ], [ -12.919408661602064, 25.218897712392867 ], [ -12.808178810763382, 25.423757613325389 ], [ -12.693390602515963, 25.626645084537945 ], [ -12.575079002460011, 25.827498324541388 ], [ -12.453280049455021, 26.026256151493097 ], [ -12.328030844641967, 26.222858021833584 ], [ -12.199369540141952, 26.417244048728609 ], [ -12.067335327434694, 26.60935502031132 ], [ -11.931968425420433, 26.799132417718759 ], [ -11.793310068168848, 26.986518432917251 ], [ -11.651402492358772, 27.171455986311333 ], [ -11.506288924412488, 27.353888744130693 ], [ -11.358013567328534, 27.533761135590048 ], [ -11.206621587217059, 27.711018369816482 ], [ -11.05215909954177, 27.885606452539324 ], [ -10.894673155072724, 28.057472202537316 ], [ -10.734211725554212, 28.226563267838099 ], [ -10.570823689092078, 28.392828141665159 ], [ -10.404558815265016, 28.556216178127293 ], [ -10.235467749964235, 28.716677607645803 ], [ -10.063601999966242, 28.874163552114847 ], [ -9.889013917243393, 29.02862603979014 ], [ -9.711756683016953, 29.180018019901613 ], [ -9.531884291557603, 29.328293376985556 ], [ -9.34945153373824, 29.473406944931845 ], [ -9.164513980344163, 29.615314520741915 ], [ -8.977127965145668, 29.753972877993505 ], [ -8.78735056773823, 29.889339780007766 ], [ -8.595239596155514, 30.021373992715013 ], [ -8.400853569260489, 30.150035297215034 ], [ -8.204251698920004, 30.275284502028086 ], [ -8.005493871968291, 30.397083455033073 ], [ -7.804640631964848, 30.515395055089026 ], [ -7.601753160752292, 30.630183263336441 ], [ -7.396893259819766, 30.741413114175124 ], [ -7.19012333147762, 30.849050725914985 ], [ -6.981506359849049, 30.953063311096798 ], [ -6.771105891684531, 31.053419186479509 ], [ -6.558986017004863, 31.150087782691315 ], [ -6.345211349578722, 31.243039653541363 ], [ -6.129847007240691, 31.332246484989337 ], [ -5.912958592055726, 31.417681103770217 ], [ -5.694612170336137, 31.499317485671497 ], [ -5.474874252517151, 31.577130763460431 ], [ -5.253811772897183, 31.651097234458792 ], [ -5.031492069249007, 31.721194367762998 ], [ -4.807982862308012, 31.78740081110719 ], [ -4.583352235143817, 31.849696397367378 ], [ -4.357668612421498, 31.908062150704509 ], [ -4.131000739558787, 31.962480292344726 ], [ -3.903417661785536, 32.012934245994899 ], [ -3.674988703111882, 32.059408642892024 ], [ -3.445783445211478, 32.101889326484567 ], [ -3.215871706226244, 32.1403633567448 ], [ -2.985323519499076, 32.174819014110398 ], [ -2.754209112241025, 32.205245803054353 ], [ -2.522598884139395, 32.231634455281991 ], [ -2.290563385913325, 32.253976932554231 ], [ -2.058173297823354, 32.272266429136039 ], [ -1.825499408141527, 32.28649737386958 ], [ -1.592612591588602, 32.296665431871247 ], [ -1.359583787744929, 32.30276750585206 ], [ -1.126483979441559, 32.304801737061169 ] ] ] } },
{ "type": "Feature", "properties": { "id": null }, "geometry": { "type": "MultiLineString", "coordinates": [ ] } },
{ "type": "Feature", "properties": { "id": null }, "geometry": { "type": "MultiLineString", "coordinates": [ [ [ -1.110088365608512, -55.620804291243893 ], [ -1.188974026296648, 91.658724213514489 ] ] ] } },
{ "type": "Feature", "properties": { "id": null }, "geometry": { "type": "MultiLineString", "coordinates": [ [ [ -93.682411183141483, 18.847259398360762 ], [ 59.434656212539366, 18.610602416296352 ] ] ] } },
{ "type": "Feature", "properties": { "id": null }, "geometry": { "type": "MultiLineString", "coordinates": [ [ [ -82.677861517145828, -60.669486575284907 ], [ 55.80591582088492, 74.146107540747295 ] ] ] } },
{ "type": "Feature", "properties": { "id": null }, "geometry": { "type": "MultiLineString", "coordinates": [ [ [ -45.798815145440138, 64.758713918858547 ], [ 47.87790692172679, -31.955106084801745 ] ] ] } },
{ "type": "Feature", "properties": { "id": null }, "geometry": { "type": "MultiLineString", "coordinates": [ [ [ -32.112153016047728, -56.56743221950159 ], [ 29.300333829669682, 92.684237802460331 ] ] ] } },
{ "type": "Feature", "properties": { "id": null }, "geometry": { "type": "MultiLineString", "coordinates": [ [ [ -77.116422438631957, 50.164866691552561 ], [ 64.877766800021064, -8.762721842488421 ] ] ] } },
{ "type": "Feature", "properties": { "id": null }, "geometry": { "type": "MultiLineString", "coordinates": [ [ [ -80.666277169598317, -12.943661858959878 ], [ 63.615596229010826, 44.563984782694604 ] ] ] } },
{ "type": "Feature", "properties": { "id": null }, "geometry": { "type": "MultiLineString", "coordinates": [ [ [ -22.843087885191238, 72.962822630425165 ], [ 26.105464571799992, -50.33546502513849 ] ] ] } }
]
}
