{
"type": "FeatureCollection",
"name": "fog_of_the_unknown",
"crs": { "type": "name", "properties": { "name": "urn:ogc:def:crs:OGC:1.3:CRS84" } },
"features": [
{ "type": "Feature", "properties": { "id": 1 }, "geometry": { "type": "Polygon", "coordinates": [ [ [ 179.999999999903423, 85.051128779814931 ], [ -179.999999999903423, 85.051128779814931 ], [ -179.999999999903423, -85.051128779814931 ], [ 179.999999999903423, -85.051128779814931 ], [ 179.999999999903423, 85.051128779814931 ] ], [ [ 66.96275378755746, -26.602945283303761 ], [ 68.97230829832192, -22.722713760239877 ], [ 70.723780914876727, -18.719358957356391 ], [ 72.209671562586934, -14.610023854525316 ], [ 73.423617429580929, -10.412305255533711 ], [ 74.360420213287867, -6.144178435867839 ], [ 75.016068380367386, -1.823920169824291 ], [ 75.387754344711041, 2.529969533443545 ], [ 75.473886489957323, 6.898846649805089 ], [ 75.274095985036979, 11.264002976725761 ], [ 74.789238363564479, 15.606746244662775 ], [ 74.021389860311729, 19.90848016023266 ], [ 72.973838520451807, 24.15078403839485 ], [ 71.651070119645084, 28.31549168265267 ], [ 70.058748955258878, 32.384769175495791 ], [ 68.203693590976656, 36.341191245973121 ], [ 66.093847658661645, 40.167815887377799 ], [ 63.73824584250535, 43.848256905521339 ], [ 61.146975191123204, 47.366754086932353 ], [ 58.331131923263463, 50.708240686510642 ], [ 55.302773912095255, 53.858407945642398 ], [ 52.074869051544432, 56.803766364501485 ], [ 48.661239725780774, 59.531703466158824 ], [ 45.07650361964717, 62.03053780514449 ], [ 41.336011123488696, 64.289568989190968 ], [ 37.455779600424819, 66.2991234999554 ], [ 33.452424797541326, 68.050596116510206 ], [ 29.343089694710258, 69.536486764220427 ], [ 25.145371095718648, 70.750432631214409 ], [ 20.877244276052778, 71.687235414921361 ], [ 16.55698601000929, 72.342883582000852 ], [ 12.203096306741392, 72.714569546344535 ], [ 7.834219190379844, 72.800701691590803 ], [ 3.469062863459193, 72.600911186670444 ], [ -0.873680404477806, 72.116053565197973 ], [ -5.175414320047754, 71.348205061945194 ], [ -9.41771819820992, 70.300653722085286 ], [ -13.582425842467709, 68.977885321278563 ], [ -17.651703335310849, 67.385564156892357 ], [ -21.608125405788154, 65.530508792610149 ], [ -25.434750047192853, 63.420662860295103 ], [ -29.115191065336393, 61.06506104413883 ], [ -32.633688246747454, 58.473790392756676 ], [ -35.9751748463257, 55.657947124896957 ], [ -39.125342105457449, 52.62958911372877 ], [ -42.070700524316564, 49.401684253177919 ], [ -44.798637625973868, 45.988054927414282 ], [ -47.297471964959541, 42.403318821280656 ], [ -49.556503149006026, 38.662826325122182 ], [ -51.566057659770443, 34.782594802058327 ], [ -53.317530276325279, 30.779239999174816 ], [ -54.803420924035471, 26.66990489634377 ], [ -56.017366791029467, 22.472186297352131 ], [ -56.954169574736412, 18.204059477686286 ], [ -57.609817741815917, 13.883801211642743 ], [ -57.981503706159593, 9.529911508374877 ], [ -58.067635851405853, 5.161034392013367 ], [ -57.86784534648551, 0.795878065092673 ], [ -57.382987725013038, -3.54686520284433 ], [ -56.615139221760266, -7.84859911841424 ], [ -55.567587881900366, -12.090902996576437 ], [ -54.244819481093636, -16.255610640834181 ], [ -52.652498316707415, -20.324888133677362 ], [ -50.797442952425214, -24.281310204154693 ], [ -48.687597020110182, -28.107934845559374 ], [ -46.331995203953888, -31.788375863702914 ], [ -43.740724552571749, -35.306873045113939 ], [ -40.924881284712008, -38.648359644692221 ], [ -37.896523273543806, -41.798526903823984 ], [ -34.668618412992991, -44.743885322683084 ], [ -31.254989087229376, -47.47182242434036 ], [ -27.670252981095722, -49.970656763326069 ], [ -23.929760484937255, -52.22968794737254 ], [ -20.049528961873431, -54.239242458136957 ], [ -16.046174158989874, -55.990715074691799 ], [ -11.936839056158862, -57.476605722401978 ], [ -7.739120457167203, -58.69055158939598 ], [ -3.470993637501329, -59.627354373102946 ], [ 0.849264628542159, -60.283002540182437 ], [ 5.20315433181005, -60.654688504526113 ], [ 9.572031448171536, -60.740820649772374 ], [ 13.937187775092253, -60.54103014485203 ], [ 18.279931043029276, -60.056172523379558 ], [ 22.581664958599173, -59.288324020126772 ], [ 26.823968836761363, -58.240772680266886 ], [ 30.98867648101912, -56.91800427946017 ], [ 35.057953973862297, -55.325683115073943 ], [ 39.014376044339564, -53.470627750791756 ], [ 42.841000685744305, -51.36078181847671 ], [ 46.521441703887803, -49.005180002320451 ], [ 50.039938885298866, -46.413909350938276 ], [ 53.381425484877163, -43.598066083078535 ], [ 56.531592744008861, -40.56970807191037 ], [ 59.476951162868019, -37.341803211359512 ], [ 62.204888264525295, -33.928173885595903 ], [ 64.703722603510982, -30.343437779462249 ], [ 66.96275378755746, -26.602945283303761 ] ] ] } }
]
}
